{
  "type": "FeatureCollection",
  "features": [
    {
      "type": "Feature",
      "properties": {
        "norad_id": 33376,
        "name": "GALAXY 19 (G-19)",
        "group": "intelsat",
        "lat": -0.02626046941676903,
        "lon": -103.5910715635752,
        "alt_km": 35775.554080717804,
        "timestamp": "2025-12-16T17:51:10.591852+00:00",
        "meta_object_name": "GALAXY 19 (G-19)",
        "meta_object_id": "2008-045A",
        "meta_epoch": "2025-12-15T21:29:12.186816",
        "meta_mean_motion": 1.00271159,
        "meta_eccentricity": 0.00025734,
        "meta_inclination": 0.0266,
        "meta_ra_of_asc_node": 277.9689,
        "meta_arg_of_pericenter": 348.5535,
        "meta_mean_anomaly": 43.5758,
        "meta_ephemeris_type": 0,
        "meta_classification_type": "U",
        "meta_norad_cat_id": 33376,
        "meta_element_set_no": 999,
        "meta_rev_at_epoch": 6306,
        "meta_bstar": 0,
        "meta_mean_motion_dot": -1.17e-06,
        "meta_mean_motion_ddot": 0,
        "tle_line1": "1 33376U 08045A   25349.89527994 -.00000117  00000+0  00000+0 0  9993",
        "tle_line2": "2 33376   0.0266 277.9689 0002573 348.5535  43.5758  1.00271159 63069"
      },
      "geometry": {
        "type": "Point",
        "coordinates": [
          -103.5910715635752,
          -0.02626046941676903
        ]
      }
    },
    {
      "type": "Feature",
      "properties": {
        "norad_id": 35493,
        "name": "FM-5",
        "group": "intelsat",
        "lat": -0.024049325021210193,
        "lon": -92.71226994755371,
        "alt_km": 35787.71568093181,
        "timestamp": "2025-12-16T17:51:10.591872+00:00",
        "meta_object_name": "FM-5",
        "meta_object_id": "2009-034A",
        "meta_epoch": "2025-12-15T19:43:37.875360",
        "meta_mean_motion": 1.00272895,
        "meta_eccentricity": 9.687e-05,
        "meta_inclination": 0.0228,
        "meta_ra_of_asc_node": 288.2131,
        "meta_arg_of_pericenter": 221.6545,
        "meta_mean_anomaly": 144.6238,
        "meta_ephemeris_type": 0,
        "meta_classification_type": "U",
        "meta_norad_cat_id": 35493,
        "meta_element_set_no": 999,
        "meta_rev_at_epoch": 4480,
        "meta_bstar": 0,
        "meta_mean_motion_dot": -1.78e-06,
        "meta_mean_motion_ddot": 0,
        "tle_line1": "1 35493U 09034A   25349.82196615 -.00000178  00000+0  00000+0 0  9996",
        "tle_line2": "2 35493   0.0228 288.2131 0000968 221.6545 144.6238  1.00272895 44809"
      },
      "geometry": {
        "type": "Point",
        "coordinates": [
          -92.71226994755371,
          -0.024049325021210193
        ]
      }
    },
    {
      "type": "Feature",
      "properties": {
        "norad_id": 36097,
        "name": "INTELSAT 14 (IS-14)",
        "group": "intelsat",
        "lat": -0.008533642634588471,
        "lon": -51.56042536822959,
        "alt_km": 35777.32875908969,
        "timestamp": "2025-12-16T17:51:10.591884+00:00",
        "meta_object_name": "INTELSAT 14 (IS-14)",
        "meta_object_id": "2009-064A",
        "meta_epoch": "2025-12-15T22:25:17.666400",
        "meta_mean_motion": 1.00272663,
        "meta_eccentricity": 0.00024832,
        "meta_inclination": 0.0158,
        "meta_ra_of_asc_node": 310.6708,
        "meta_arg_of_pericenter": 322.7022,
        "meta_mean_anomaly": 102.7913,
        "meta_ephemeris_type": 0,
        "meta_classification_type": "U",
        "meta_norad_cat_id": 36097,
        "meta_element_set_no": 999,
        "meta_rev_at_epoch": 5876,
        "meta_bstar": 0,
        "meta_mean_motion_dot": -2.51e-06,
        "meta_mean_motion_ddot": 0,
        "tle_line1": "1 36097U 09064A   25349.93423225 -.00000251  00000+0  00000+0 0  9994",
        "tle_line2": "2 36097   0.0158 310.6708 0002483 322.7022 102.7913  1.00272663 58767"
      },
      "geometry": {
        "type": "Point",
        "coordinates": [
          -51.56042536822959,
          -0.008533642634588471
        ]
      }
    },
    {
      "type": "Feature",
      "properties": {
        "norad_id": 36106,
        "name": "INTELSAT 15 (IS-15)",
        "group": "intelsat",
        "lat": 0.029624412484821054,
        "lon": 78.57520547729537,
        "alt_km": 35795.01011985526,
        "timestamp": "2025-12-16T17:51:10.591896+00:00",
        "meta_object_name": "INTELSAT 15 (IS-15)",
        "meta_object_id": "2009-067A",
        "meta_epoch": "2025-12-15T20:38:24.551232",
        "meta_mean_motion": 1.00271939,
        "meta_eccentricity": 0.00021938,
        "meta_inclination": 0.0114,
        "meta_ra_of_asc_node": 313.2969,
        "meta_arg_of_pericenter": 321.4401,
        "meta_mean_anomaly": 204.7798,
        "meta_ephemeris_type": 0,
        "meta_classification_type": "U",
        "meta_norad_cat_id": 36106,
        "meta_element_set_no": 999,
        "meta_rev_at_epoch": 3939,
        "meta_bstar": 0,
        "meta_mean_motion_dot": -1.63e-06,
        "meta_mean_motion_ddot": 0,
        "tle_line1": "1 36106U 09067A   25349.86000638 -.00000163  00000+0  00000+0 0  9991",
        "tle_line2": "2 36106   0.0114 313.2969 0002193 321.4401 204.7798  1.00271939 39390"
      },
      "geometry": {
        "type": "Point",
        "coordinates": [
          78.57520547729537,
          0.029624412484821054
        ]
      }
    },
    {
      "type": "Feature",
      "properties": {
        "norad_id": 36131,
        "name": "DIRECTV 12",
        "group": "intelsat",
        "lat": -0.02156828663736135,
        "lon": -109.3132743850914,
        "alt_km": 35787.30848807021,
        "timestamp": "2025-12-16T17:51:10.591908+00:00",
        "meta_object_name": "DIRECTV 12",
        "meta_object_id": "2009-075A",
        "meta_epoch": "2025-12-15T21:27:34.843392",
        "meta_mean_motion": 1.00269806,
        "meta_eccentricity": 3.323e-05,
        "meta_inclination": 0.0471,
        "meta_ra_of_asc_node": 156.382,
        "meta_arg_of_pericenter": 212.2983,
        "meta_mean_anomaly": 295.2911,
        "meta_ephemeris_type": 0,
        "meta_classification_type": "U",
        "meta_norad_cat_id": 36131,
        "meta_element_set_no": 999,
        "meta_rev_at_epoch": 4471,
        "meta_bstar": 0,
        "meta_mean_motion_dot": -8.1e-07,
        "meta_mean_motion_ddot": 0,
        "tle_line1": "1 36131U 09075A   25349.89415328 -.00000081  00000+0  00000+0 0  9996",
        "tle_line2": "2 36131   0.0471 156.3820 0000332 212.2983 295.2911  1.00269806 44715"
      },
      "geometry": {
        "type": "Point",
        "coordinates": [
          -109.3132743850914,
          -0.02156828663736135
        ]
      }
    },
    {
      "type": "Feature",
      "properties": {
        "norad_id": 36397,
        "name": "INTELSAT 16 (IS-16)",
        "group": "intelsat",
        "lat": -0.027833757147333417,
        "lon": -82.78167726791509,
        "alt_km": 35778.25923960977,
        "timestamp": "2025-12-16T17:51:10.591921+00:00",
        "meta_object_name": "INTELSAT 16 (IS-16)",
        "meta_object_id": "2010-006A",
        "meta_epoch": "2025-12-15T21:35:11.613408",
        "meta_mean_motion": 1.00271314,
        "meta_eccentricity": 0.00019208,
        "meta_inclination": 0.0103,
        "meta_ra_of_asc_node": 327.9434,
        "meta_arg_of_pericenter": 300.4107,
        "meta_mean_anomaly": 64.0464,
        "meta_ephemeris_type": 0,
        "meta_classification_type": "U",
        "meta_norad_cat_id": 36397,
        "meta_element_set_no": 999,
        "meta_rev_at_epoch": 5781,
        "meta_bstar": 0,
        "meta_mean_motion_dot": -2.22e-06,
        "meta_mean_motion_ddot": 0,
        "tle_line1": "1 36397U 10006A   25349.89943997 -.00000222  00000+0  00000+0 0  9991",
        "tle_line2": "2 36397   0.0103 327.9434 0001920 300.4107  64.0464  1.00271314 57817"
      },
      "geometry": {
        "type": "Point",
        "coordinates": [
          -82.78167726791509,
          -0.027833757147333417
        ]
      }
    },
    {
      "type": "Feature",
      "properties": {
        "norad_id": 37185,
        "name": "XM-5",
        "group": "intelsat",
        "lat": -0.053093818016102225,
        "lon": -121.7521345868045,
        "alt_km": 35786.10001268765,
        "timestamp": "2025-12-16T17:51:10.591933+00:00",
        "meta_object_name": "XM-5",
        "meta_object_id": "2010-053A",
        "meta_epoch": "2025-12-15T00:53:38.487264",
        "meta_mean_motion": 1.0027191,
        "meta_eccentricity": 0.00019003,
        "meta_inclination": 0.0635,
        "meta_ra_of_asc_node": 272.1788,
        "meta_arg_of_pericenter": 235.4435,
        "meta_mean_anomaly": 194.5481,
        "meta_ephemeris_type": 0,
        "meta_classification_type": "U",
        "meta_norad_cat_id": 37185,
        "meta_element_set_no": 999,
        "meta_rev_at_epoch": 5563,
        "meta_bstar": 0,
        "meta_mean_motion_dot": -3e-08,
        "meta_mean_motion_ddot": 0,
        "tle_line1": "1 37185U 10053A   25349.03725101 -.00000003  00000+0  00000+0 0  9997",
        "tle_line2": "2 37185   0.0635 272.1788 0001900 235.4435 194.5481  1.00271910 55633"
      },
      "geometry": {
        "type": "Point",
        "coordinates": [
          -121.7521345868045,
          -0.053093818016102225
        ]
      }
    }
  ]
}